ONEWEB-0080             
1 45426U 20020C   24268.67934791 -.00000203  00000+0 -60732-3 0  9990
2 45426  87.8954 146.6483 0001924  86.9661 273.1687 13.11413548220063
ONEWEB-0090             
1 45427U 20020D   24269.15408107 -.00000464  00000+0 -13454-2 0  9999
2 45427  87.8959 146.5419 0001748  76.9435 283.1888 13.11417120220108
ONEWEB-0061             
1 45428U 20020E   24268.65209627  .00000540  00000+0  14882-2 0  9999
2 45428  87.8955 146.6352 0001709  77.5236 282.6083 13.11415943219981
ONEWEB-0081             
1 45429U 20020F   24269.16764807 -.00000152  00000+0 -46461-3 0  9993
2 45429  87.8957 146.5514 0001550  82.0296 278.1007 13.11417938220168
ONEWEB-0069             
1 45430U 20020G   24269.15747332 -.00000444  00000+0 -12886-2 0  9995
2 45430  87.8960 146.5422 0001797  77.5372 282.5957 13.11417136220106
ONEWEB-0031             
1 45431U 20020H   24268.67087606  .00000192  00000+0  50739-3 0  9991
2 45431  87.8961 146.6533 0001793  75.2597 284.8729 13.11413817220016
ONEWEB-0027             
1 45432U 20020J   24268.35280705  .00000013  00000+0 -96820-6 0  9999
2 45432  87.9117 131.5154 0001953  71.7202 288.4142 13.17549608223280
ONEWEB-0064             
1 45433U 20020K   24269.12696722  .00000374  00000+0  10184-2 0  9990
2 45433  87.8958 146.5673 0001874  75.8965 284.2372 13.11411447220119
